[{"OBJECT_NAME":"STARLINK-4645","OBJECT_ID":"2022-107AV","EPOCH":"2026-03-09T19:58:04.893312","MEAN_MOTION":15.088425,"ECCENTRICITY":0.0001382,"INCLINATION":53.2167,"RA_OF_ASC_NODE":263.572,"ARG_OF_PERICENTER":88.4399,"MEAN_ANOMALY":271.6752,"EPHEMERIS_TYPE":0,"CLASSIFICATION_TYPE":"U","NORAD_CAT_ID":53743,"ELEMENT_SET_NO":999,"REV_AT_EPOCH":19461,"BSTAR":1.2715346e-5,"MEAN_MOTION_DOT":-8.6e-7,"MEAN_MOTION_DDOT":0},{"OBJECT_NAME":"COSMOS 249 DEB","OBJECT_ID":"1968-091BP","EPOCH":"2026-03-09T03:57:13.495392","MEAN_MOTION":13.42038189,"ECCENTRICITY":0.07938892,"INCLINATION":62.9233,"RA_OF_ASC_NODE":0.91,"ARG_OF_PERICENTER":72.9065,"MEAN_ANOMALY":295.7294,"EPHEMERIS_TYPE":0,"CLASSIFICATION_TYPE":"U","NORAD_CAT_ID":3911,"ELEMENT_SET_NO":999,"REV_AT_EPOCH":65389,"BSTAR":0.001716156,"MEAN_MOTION_DOT":6.769e-5,"MEAN_MOTION_DDOT":0}]
